*******************************************************************************
JPL/HORIZONS              4090 Risehvezd (1986 RH1)        2023-Sep-04 11:27:14
Rec #:    4090 (+COV) Soln.date: 2023-Aug-23_16:00:08   # obs: 3829 (1931-2023)
 
IAU76/J2000 helio. ecliptic osc. elements (au, days, deg., period=Julian yrs):
 
  EPOCH=  2457506.5 ! 2016-Apr-28.00 (TDB)         Residual RMS= .27007
   EC= .2093138534103066   QR= 1.864224121603391   TP= 2457071.8267703969
   OM= 266.5579540624613   W=  4.442488991619954   IN= 1.328362583028769
   A= 2.357729586693749    MA= 118.3384775632936   ADIST= 2.851235051784107
   PER= 3.62034            N= .272246988           ANGMOM= .025828549
   DAN= 1.86519            DDN= 2.84897            L= 270.9992539
   B= .1028837             MOID= .84771699         TP= 2015-Feb-18.3267703969
 
Asteroid physical parameters (km, seconds, rotational period in hours):
   GM= n.a.                RAD= 3.5975             ROTPER= 4.55
   H= 13.3                 G= .150                 B-V= n.a.
                           ALBEDO= .149            STYP= n.a.

ASTEROID comments: 
1: soln ref.= JPL#58, OCC=0
2: source=ORB
*******************************************************************************


*******************************************************************************
Ephemeris / API_USER Mon Sep  4 11:27:14 2023 Pasadena, USA      / Horizons
*******************************************************************************
Target body name: 4090 Risehvezd (1986 RH1)       {source: JPL#58}
Center body name: Solar System Barycenter (0)     {source: DE441}
Center-site name: BODY CENTER
*******************************************************************************
Start time      : A.D. 2023-Aug-12 00:00:00.0000 TDB
Stop  time      : A.D. 2023-Aug-13 00:00:00.0000 TDB
Step-size       : 2880 minutes
*******************************************************************************
Center geodetic : 0.0, 0.0, 0.0                   {E-lon(deg),Lat(deg),Alt(km)}
Center cylindric: 0.0, 0.0, 0.0                   {E-lon(deg),Dxy(km),Dz(km)}
Center radii    : (undefined)
Small perturbers: Yes                             {source: SB441-N16}
Output units    : KM-S
Calendar mode   : Mixed Julian/Gregorian
Output type     : GEOMETRIC cartesian states
Output format   : 2 (position and velocity)
Reference frame : Ecliptic of J2000.0
*******************************************************************************
Initial IAU76/J2000 heliocentric ecliptic osculating elements (au, days, deg.):
  EPOCH=  2457506.5 ! 2016-Apr-28.00 (TDB)         Residual RMS= .27007        
   EC= .2093138534103066   QR= 1.864224121603391   TP= 2457071.8267703969      
   OM= 266.5579540624613   W=  4.442488991619954   IN= 1.328362583028769       
  Equivalent ICRF heliocentric cartesian coordinates (au, au/d):
   X= 1.786804363182769E+00  Y= 1.792565336996216E+00  Z= 8.192603128133820E-01
  VX=-6.086697460660957E-03 VY= 7.160470085715440E-03 VZ= 2.939143017511720E-03
Asteroid physical parameters (km, seconds, rotational period in hours):        
   GM= n.a.                RAD= 3.5975             ROTPER= 4.55                
   H= 13.3                 G= .150                 B-V= n.a.                   
                           ALBEDO= .149            STYP= n.a.                  
*******************************************************************************
JDTDB
   X     Y     Z
   VX    VY    VZ
*******************************************************************************
$$SOE
2460168.500000000 = A.D. 2023-Aug-12 00:00:00.0000 TDB 
 X = 2.500480238242636E+08 Y = 3.136148054365336E+08 Z = 5.391338566829994E+06
 VX=-1.131159863124861E+01 VY= 1.246568931220503E+01 VZ=-2.809248457840754E-01
$$EOE
*******************************************************************************
 
TIME

  Barycentric Dynamical Time ("TDB" or T_eph) output was requested. This
continuous coordinate time is equivalent to the relativistic proper time
of a clock at rest in a reference frame co-moving with the solar system
barycenter but outside the system's gravity well. It is the independent
variable in the solar system relativistic equations of motion.

  TDB runs at a uniform rate of one SI second per second and is independent
of irregularities in Earth's rotation.
 
CALENDAR SYSTEM

  Mixed calendar mode was active such that calendar dates after AD 1582-Oct-15
(if any) are in the modern Gregorian system. Dates prior to 1582-Oct-5 (if any)
are in the Julian calendar system, which is automatically extended for dates
prior to its adoption on 45-Jan-1 BC.  The Julian calendar is useful for
matching historical dates. The Gregorian calendar more accurately corresponds
to the Earth's orbital motion and seasons. A "Gregorian-only" calendar mode is
available if such physical events are the primary interest.

REFERENCE FRAME AND COORDINATES

  Ecliptic at the standard reference epoch

    Reference epoch: J2000.0
    X-Y plane: adopted Earth orbital plane at the reference epoch
               Note: IAU76 obliquity of 84381.448 arcseconds wrt ICRF X-Y plane
    X-axis   : ICRF
    Z-axis   : perpendicular to the X-Y plane in the directional (+ or -) sense
               of Earth's north pole at the reference epoch.

  Symbol meaning:

    JDTDB    Julian Day Number, Barycentric Dynamical Time
      X      X-component of position vector (km)
      Y      Y-component of position vector (km)
      Z      Z-component of position vector (km)
      VX     X-component of velocity vector (km/sec)                           
      VY     Y-component of velocity vector (km/sec)                           
      VZ     Z-component of velocity vector (km/sec)                           

ABERRATIONS AND CORRECTIONS

 Geometric state vectors have NO corrections or aberrations applied.

Computations by ...

    Solar System Dynamics Group, Horizons On-Line Ephemeris System
    4800 Oak Grove Drive, Jet Propulsion Laboratory
    Pasadena, CA  91109   USA

    General site: https://ssd.jpl.nasa.gov/
    Mailing list: https://ssd.jpl.nasa.gov/email_list.html
    System news : https://ssd.jpl.nasa.gov/horizons/news.html
    User Guide  : https://ssd.jpl.nasa.gov/horizons/manual.html
    Connect     : browser        https://ssd.jpl.nasa.gov/horizons/app.html#/x
                  API            https://ssd-api.jpl.nasa.gov/doc/horizons.html
                  command-line   telnet ssd.jpl.nasa.gov 6775
                  e-mail/batch   https://ssd.jpl.nasa.gov/ftp/ssd/hrzn_batch.txt
                  scripts        https://ssd.jpl.nasa.gov/ftp/ssd/SCRIPTS
    Author      : Jon.D.Giorgini@jpl.nasa.gov
*******************************************************************************
